2015-049A               
1 40899U 15049A   15289.79690693  .00001465  00000-0  85321-4 0  9992
2 40899  97.4560 297.3910 0015692 174.4885 272.0875 15.13471079  4074
NUDT-PHONESAT           
1 40900U 15049B   15289.79828689  .00004668  00000-0  26370-3 0  9999
2 40900  97.4485 297.3648 0015825 176.8820 270.3223 15.13491663  4062
ZDPS 2A                 
1 40901U 15049C   15289.85996014  .00002374  00000-0  13671-3 0  9997
2 40901  97.4633 297.4702 0014765 170.4863 240.6295 15.13303347  4070
ZDPS 2B                 
1 40902U 15049D   15289.86890951  .00002372  00000-0  13712-3 0  9996
2 40902  97.4489 297.4208 0015120 167.5584 276.9012 15.13143907  4077
XW-2A                   
1 40903U 15049E   15289.82201594  .00002028  00000-0  10633-3 0  9999
2 40903  97.4555 297.5246 0024446 203.7063 281.8132 15.16670360  4070
KAITUO 1A               
1 40904U 15049F   15289.74310615  .00001491  00000-0  88482-4 0  9997
2 40904  97.4562 297.3121 0015657 164.7064 282.1000 15.12770849  4044
2015-049G               
1 40905U 15049G   15289.83014095  .00001708  00000-0  10295-3 0  9998
2 40905  97.4512 297.3444 0017090 153.2454 331.7378 15.11987469  4065
XW-2C                   
1 40906U 15049H   15289.81228199  .00002225  00000-0  13205-3 0  9998
2 40906  97.4567 297.3586 0016669 155.6619 255.5188 15.12247133  4052
XW-2D                   
1 40907U 15049J   15289.88553752  .00002326  00000-0  13805-3 0  9990
2 40907  97.4537 297.4157 0016148 153.7308 291.1284 15.12198925  4069
LILACSAT 2              
1 40908U 15049K   15289.76196699  .00001674  00000-0  10174-3 0  9992
2 40908  97.4632 297.3106 0017412 149.2677 298.0470 15.11705252  4040
XW-2E                   
1 40909U 15049L   15289.87999731  .00003158  00000-0  18435-3 0  9990
2 40909  97.4564 297.4352 0015955 158.3172 286.8112 15.12541224  4068
XW-2F                   
1 40910U 15049M   15289.75595096  .00003306  00000-0  19519-3 0  9994
2 40910  97.4569 297.2954 0017330 153.3919 292.9859 15.12086279  3939
XW-2B                   
1 40911U 15049N   15289.75316616  .00002488  00000-0  14738-3 0  9992
2 40911  97.4581 297.3041 0015928 154.1744 291.8015 15.12216742  3941
KAITUO 1B               
1 40912U 15049P   15289.85748256  .00003039  00000-0  17124-3 0  9998
2 40912  97.4570 297.4651 0017593 151.5231 293.1028 15.13823460  3963
CZ-6 R/B                
1 40913U 15049Q   15288.92406912  .00006792  00000-0  16736-3 0  9993
2 40913  97.4155 297.2786 0091543 301.3628  57.8719 15.36613613  3876
COSMOS 2507             
1 40920U 15050A   15289.85902862  .00000010  00000-0  00000+0 0  9991
2 40920  82.4942 345.2838 0009210 193.8803 166.2058 12.42925529  2857
COSMOS 2508             
1 40921U 15050B   15289.70482954  .00000010  00000-0  00000+0 0  9991
2 40921  82.4917 345.3744 0005936 258.8092 101.2323 12.41369390  2828
COSMOS 2509             
1 40922U 15050C   15289.71519076  .00000010  00000-0  00000+0 0  9999
2 40922  82.4923 345.3837 0005910 289.2747  70.7695 12.40803168  2834
BREEZE-KM R/B           
1 40923U 15050D   15289.56033892  .00000010  00000-0  00000+0 0  9990
2 40923  82.4922 344.6709 0203492 215.9995 142.7380 12.80381133  2883
PUJIANG 1 (PJ-1)        
1 40925U 15051A   15289.78372472  .00002392  00000-0  85805-4 0  9993
2 40925  97.3084 324.9236 0013807 198.1757 251.5463 15.29601335  3306
TIANWANG 1C (TW-1C)     
1 40926U 15051B   15289.84355970  .00010148  00000-0  34913-3 0  9996
2 40926  97.3082 324.9917 0016607 197.9260 249.2181 15.30129217  3316
TIANWANG 1B (TW-1B)     
1 40927U 15051C   15289.77632344  .00005136  00000-0  17781-3 0  9997
2 40927  97.3167 324.9568 0015136 204.1097 246.2525 15.30199593  3300
TIANWANG 1A (TW-1A)     
1 40928U 15051D   15289.90663351  .00005447  00000-0  18819-3 0  9993
2 40928  97.3013 325.0451 0014165 206.2502 245.9342 15.30252090  3326
2015-052A               
1 40930U 15052A   15289.27394804  .00000930  00000-0  41366-4 0  9997
2 40930   6.0010 261.1121 0012543 256.6866 103.2096 14.76126953  2684
LAPAN-A2                
1 40931U 15052B   15289.27112346  .00000736  00000-0  13765-4 0  9993
2 40931   5.9986 261.1237 0012905 257.9909 101.8976 14.76353586  2671
2015-052C               
1 40932U 15052C   15289.20053159  .00001514  00000-0  12183-3 0  9990
2 40932   6.0102 261.5679 0014612 260.3713  99.5170 14.76615419  2660
2015-052D               
1 40933U 15052D   15289.19855062  .00001497  00000-0  11892-3 0  9998
2 40933   6.0120 261.5438 0014540 259.6170 100.2435 14.76776125  2668
2015-052E               
1 40934U 15052E   15289.20803842  .00001801  00000-0  16510-3 0  9991
2 40934   6.0070 261.6561 0011604 255.2844 104.6108 14.76002904  2638
2015-052F               
1 40935U 15052F   15289.21021561  .00001584  00000-0  13520-3 0  9999
2 40935   6.0137 261.6194 0011314 256.2659 103.6304 14.75823981  2641
2015-052G               
1 40936U 15052G   15289.27850599  .00001074  00000-0  62806-4 0  9993
2 40936   6.0022 261.1933 0010687 252.6655 107.2420 14.75757060  2664
PSLV R/B                
1 40937U 15052H   15289.15661404  .00005026  00000-0  55342-3 0  9993
2 40937   5.9083 260.5423 0030169 332.3110  28.1298 14.80215707  2663
BEIDOU I2-S             
1 40938U 15053A   15288.92026890 -.00000127  00000-0  00000-0 0  9999
2 40938  55.0156 303.5544 0041147 173.6693 332.4409  1.00294821   286
CZ-3B R/B               
1 40939U 15053B   15289.14663696  .00003798  00000-0  84369-3 0  9995
2 40939  54.9880 300.6294 7356743 182.3873 169.3481  2.19432639   373
SKY MUSTER (NBN1A)      
1 40940U 15054A   15289.77724297 -.00000295  00000-0  00000+0 0  9998
2 40940   0.0216 311.4178 0004978  48.2328  85.2526  1.00197161   226
ARSAT 2                 
1 40941U 15054B   15289.28238420 -.00000230  00000-0  00000+0 0  9992
2 40941   0.0167 246.2994 0001010 273.6832 245.0960  1.00273204   244
ARIANE 5 R/B            
1 40942U 15054C   15288.89632556  .00002405  00000-0  59418-3 0  9993
2 40942   6.3125 134.8105 7280489 193.3629 124.6460  2.28578117   342
ARIANE 5 DEB [SYLDA]    
1 40943U 15054D   15286.73456531  .00019461  00000-0  54044-2 0  9991
2 40943   5.9703 138.9543 7276110 188.4072 143.6173  2.28755190   298
PROGRESS-M 29M          
1 40944U 15055A   15288.78742221  .00015106  00000-0  23303-3 0  9991
2 40944  51.6446 202.1286 0006493  44.8455  55.9270 15.54345139  2192
MORELOS 3               
1 40946U 15056A   15289.58905856 -.00000054  00000-0  00000+0 0  9990
2 40946   7.1228 331.8631 0004868  78.8530  72.9126  1.00259533   215
ATLAS 5 CENTAUR R/B     
1 40947U 15056B   15288.37179382 -.00000002  00000-0  00000-0 0  9998
2 40947  26.6485 332.5607 5915739 181.1887 176.1546  2.04879369   262
AAUSAT 5                
1 40948U 98067GZ  15289.79677785  .00055790  00000-0  78668-3 0  9990
2 40948  51.6462 196.9969 0008336  58.1558 343.1586 15.56015759  1748
GOMX 3                  
1 40949U 98067HA  15289.74352213  .00044770  00000-0  63883-3 0  9991
2 40949  51.6447 197.2643 0010507  55.6199  41.8788 15.55766158  1731
FLOCK 2B-1              
1 40950U 98067HB  15288.76426295  .00016919  00000-0  24372-3 0  9990
2 40950  51.6422 202.1854 0007644  54.7147 305.5080 15.55336888  1500
FLOCK 2B-2              
1 40951U 98067HC  15289.23966779  .00025700  00000-0  37719-3 0  9997
2 40951  51.6436 199.7958 0007359  64.7081  77.8790 15.55315629  1577
FLOCK 2B-3              
1 40952U 98067HD  15288.57139530  .00022958  00000-0  33090-3 0  9991
2 40952  51.6427 203.1485 0004591  64.0565 296.1420 15.55343793  1443
FLOCK 2B-4              
1 40953U 98067HE  15288.76450861  .00018907  00000-0  27294-3 0  9994
2 40953  51.6420 202.1837 0004624  70.1627 290.0384 15.55301038  1472
FLOCK 2B-5              
1 40954U 98067HF  15289.86390446  .00031237  00000-0  45612-3 0  9994
2 40954  51.6453 196.6993 0009739  42.2002 356.5013 15.55322798  1639
FLOCK 2B-6              
1 40955U 98067HG  15289.81299286  .00028603  00000-0  41940-3 0  9993
2 40955  51.6450 196.9511 0009156  46.0924  65.1078 15.55263129  1629
FLOCK 2B-7              
1 40956U 98067HH  15287.43419250  .00039777  00000-0  57668-3 0  9993
2 40956  51.6527 208.8184 0009750  40.9033  67.3714 15.55397390  1201
FLOCK 2B-8              
1 40957U 98067HJ  15289.81160941  .00031860  00000-0  46484-3 0  9997
2 40957  51.6450 196.9638 0008761  60.5679  44.6939 15.55344768  1571
LQSAT                   
1 40958U 15057A   15289.80049174  .00000195  00000-0  38470-4 0  9993
2 40958  98.0420   2.5902 0017545 212.7290 147.2828 14.72713561  1419
LINGQIAO VIDEO A        
1 40959U 15057B   15289.79947834  .00000153  00000-0  31777-4 0  9999
2 40959  98.0421   2.5925 0017391 215.3779 144.6271 14.72868265  1422
LINGQIAO VIDEO B        
1 40960U 15057C   15289.79878827  .00000117  00000-0  26056-4 0  9990
2 40960  98.0412   2.5922 0017530 217.0128 142.9866 14.72973519  1423
JILIN 1                 
1 40961U 15057D   15289.79792931  .00000435  00000-0  75379-4 0  9997
2 40961  98.0419   2.5932 0017652 218.5572 141.4374 14.73108008  1428
FLOCK 2B-10             
1 40962U 98067HK  15289.23975045  .00029222  00000-0  42811-3 0  9997
2 40962  51.6471 199.8163 0009612  62.1874  77.1254 15.55269956  1404
FLOCK 2B-9              
1 40963U 98067HL  15288.76481912  .00014348  00000-0  20688-3 0  9991
2 40963  51.6429 202.1902 0008971  54.7949 305.4403 15.55295855  1336
FLOCK 2B-13             
1 40979U 98067HM  15289.87977774  .00050713  00000-0  73315-3 0  9998
2 40979  51.6448 196.6297 0009142  53.9116  70.6459 15.55372097  1411
FLOCK 2B-14             
1 40980U 98067HN  15288.85028208  .00041977  00000-0  61134-3 0  9994
2 40980  51.6452 201.7595 0009512  46.4068  68.9262 15.55251586  1254
